CCSDS_OMM_VERS = 2.0
CREATION_DATE  = 
ORIGINATOR     = 

OBJECT_NAME    = CZ-2D R/B
OBJECT_ID      = 2026-062C
CENTER_NAME    = EARTH
REF_FRAME      = TEME
TIME_SYSTEM    = UTC
MEAN_ELEMENT_THEORY = SGP/SGP4

EPOCH          = 2026-03-29T04:45:43.646112
MEAN_MOTION    = 15.31027778
ECCENTRICITY   = .0053552
INCLINATION    = 97.4971
RA_OF_ASC_NODE = 96.5082
ARG_OF_PERICENTER = 50.3966
MEAN_ANOMALY   = 310.1985

EPHEMERIS_TYPE = 0
CLASSIFICATION_TYPE = U
NORAD_CAT_ID   = 68379
ELEMENT_SET_NO = 999
REV_AT_EPOCH   = 50
BSTAR          = .2766E-3
MEAN_MOTION_DOT = .8586E-4
MEAN_MOTION_DDOT = 0

CCSDS_OMM_VERS = 2.0
CREATION_DATE  = 
ORIGINATOR     = 

OBJECT_NAME    = SHIYAN-33
OBJECT_ID      = 2026-064A
CENTER_NAME    = EARTH
REF_FRAME      = TEME
TIME_SYSTEM    = UTC
MEAN_ELEMENT_THEORY = SGP/SGP4

EPOCH          = 2026-03-28T22:14:04.790976
MEAN_MOTION    = 15.23577189
ECCENTRICITY   = .00149095
INCLINATION    = 97.4665
RA_OF_ASC_NODE = 163.8675
ARG_OF_PERICENTER = 225.4312
MEAN_ANOMALY   = 134.5709

EPHEMERIS_TYPE = 0
CLASSIFICATION_TYPE = U
NORAD_CAT_ID   = 68405
ELEMENT_SET_NO = 999
REV_AT_EPOCH   = 27
BSTAR          = .27404343E-3
MEAN_MOTION_DOT = .6503E-4
MEAN_MOTION_DDOT = 0

CCSDS_OMM_VERS = 2.0
CREATION_DATE  = 
ORIGINATOR     = 

OBJECT_NAME    = 2026-065A
OBJECT_ID      = 2026-065A
CENTER_NAME    = EARTH
REF_FRAME      = TEME
TIME_SYSTEM    = UTC
MEAN_ELEMENT_THEORY = SGP/SGP4

EPOCH          = 2026-03-28T22:34:26.975136
MEAN_MOTION    = 15.18211376
ECCENTRICITY   = .0015809
INCLINATION    = 97.4112
RA_OF_ASC_NODE = 330.1101
ARG_OF_PERICENTER = 287.1112
MEAN_ANOMALY   = 72.8390

EPHEMERIS_TYPE = 0
CLASSIFICATION_TYPE = U
NORAD_CAT_ID   = 68408
ELEMENT_SET_NO = 999
REV_AT_EPOCH   = 8
BSTAR          = .70532E-4
MEAN_MOTION_DOT = .1379E-4
MEAN_MOTION_DDOT = 0

